CCSDS_OMM_VERS = 2.0
CREATION_DATE  = 
ORIGINATOR     = 

OBJECT_NAME    = STARLINK-36500
OBJECT_ID      = 2026-002R
CENTER_NAME    = EARTH
REF_FRAME      = TEME
TIME_SYSTEM    = UTC
MEAN_ELEMENT_THEORY = SGP/SGP4

EPOCH          = 2026-01-17T14:00:03.000384
MEAN_MOTION    = 15.80890190
ECCENTRICITY   = .00017035
INCLINATION    = 42.9967
RA_OF_ASC_NODE = 259.8575
ARG_OF_PERICENTER = 264.7565
MEAN_ANOMALY   = 130.2678

EPHEMERIS_TYPE = 0
CLASSIFICATION_TYPE = U
NORAD_CAT_ID   = 67320
ELEMENT_SET_NO = 999
REV_AT_EPOCH   = 326
BSTAR          = -.86059717E-2
MEAN_MOTION_DOT = -.1514743E-1
MEAN_MOTION_DDOT = 0

CCSDS_OMM_VERS = 2.0
CREATION_DATE  = 
ORIGINATOR     = 

OBJECT_NAME    = STARLINK-36462
OBJECT_ID      = 2026-002S
CENTER_NAME    = EARTH
REF_FRAME      = TEME
TIME_SYSTEM    = UTC
MEAN_ELEMENT_THEORY = SGP/SGP4

EPOCH          = 2026-01-17T14:00:03.000384
MEAN_MOTION    = 15.80778922
ECCENTRICITY   = .00017303
INCLINATION    = 42.9969
RA_OF_ASC_NODE = 259.8454
ARG_OF_PERICENTER = 264.0164
MEAN_ANOMALY   = 135.7663

EPHEMERIS_TYPE = 0
CLASSIFICATION_TYPE = U
NORAD_CAT_ID   = 67321
ELEMENT_SET_NO = 999
REV_AT_EPOCH   = 320
BSTAR          = -.87395463E-2
MEAN_MOTION_DOT = -.1528393E-1
MEAN_MOTION_DDOT = 0

CCSDS_OMM_VERS = 2.0
CREATION_DATE  = 
ORIGINATOR     = 

OBJECT_NAME    = STARLINK-36434
OBJECT_ID      = 2026-002T
CENTER_NAME    = EARTH
REF_FRAME      = TEME
TIME_SYSTEM    = UTC
MEAN_ELEMENT_THEORY = SGP/SGP4

EPOCH          = 2026-01-17T14:00:03.000384
MEAN_MOTION    = 15.80780732
ECCENTRICITY   = .00017963
INCLINATION    = 42.9969
RA_OF_ASC_NODE = 259.8503
ARG_OF_PERICENTER = 267.9687
MEAN_ANOMALY   = 129.8307

EPHEMERIS_TYPE = 0
CLASSIFICATION_TYPE = U
NORAD_CAT_ID   = 67322
ELEMENT_SET_NO = 999
REV_AT_EPOCH   = 320
BSTAR          = -.87070372E-2
MEAN_MOTION_DOT = -.1523563E-1
MEAN_MOTION_DDOT = 0

CCSDS_OMM_VERS = 2.0
CREATION_DATE  = 
ORIGINATOR     = 

OBJECT_NAME    = STARLINK-36497
OBJECT_ID      = 2026-002U
CENTER_NAME    = EARTH
REF_FRAME      = TEME
TIME_SYSTEM    = UTC
MEAN_ELEMENT_THEORY = SGP/SGP4

EPOCH          = 2026-01-17T14:00:03.000384
MEAN_MOTION    = 15.80730652
ECCENTRICITY   = .00016565
INCLINATION    = 42.9971
RA_OF_ASC_NODE = 259.8395
ARG_OF_PERICENTER = 265.6457
MEAN_ANOMALY   = 136.4817

EPHEMERIS_TYPE = 0
CLASSIFICATION_TYPE = U
NORAD_CAT_ID   = 67323
ELEMENT_SET_NO = 999
REV_AT_EPOCH   = 326
BSTAR          = -.88333705E-2
MEAN_MOTION_DOT = -.1539669E-1
MEAN_MOTION_DDOT = 0

CCSDS_OMM_VERS = 2.0
CREATION_DATE  = 
ORIGINATOR     = 

OBJECT_NAME    = STARLINK-36471
OBJECT_ID      = 2026-002V
CENTER_NAME    = EARTH
REF_FRAME      = TEME
TIME_SYSTEM    = UTC
MEAN_ELEMENT_THEORY = SGP/SGP4

EPOCH          = 2026-01-17T14:00:03.000384
MEAN_MOTION    = 15.80549736
ECCENTRICITY   = .00018118
INCLINATION    = 42.9976
RA_OF_ASC_NODE = 259.8267
ARG_OF_PERICENTER = 269.0023
MEAN_ANOMALY   = 138.3705

EPHEMERIS_TYPE = 0
CLASSIFICATION_TYPE = U
NORAD_CAT_ID   = 67324
ELEMENT_SET_NO = 999
REV_AT_EPOCH   = 320
BSTAR          = -.91266245E-2
MEAN_MOTION_DOT = -.1572754E-1
MEAN_MOTION_DDOT = 0

CCSDS_OMM_VERS = 2.0
CREATION_DATE  = 
ORIGINATOR     = 

OBJECT_NAME    = STARLINK-36473
OBJECT_ID      = 2026-002W
CENTER_NAME    = EARTH
REF_FRAME      = TEME
TIME_SYSTEM    = UTC
MEAN_ELEMENT_THEORY = SGP/SGP4

EPOCH          = 2026-01-17T14:00:03.000384
MEAN_MOTION    = 15.80621493
ECCENTRICITY   = .00017051
INCLINATION    = 42.9971
RA_OF_ASC_NODE = 259.8327
ARG_OF_PERICENTER = 263.6780
MEAN_ANOMALY   = 141.2146

EPHEMERIS_TYPE = 0
CLASSIFICATION_TYPE = U
NORAD_CAT_ID   = 67325
ELEMENT_SET_NO = 999
REV_AT_EPOCH   = 336
BSTAR          = -.89806011E-2
MEAN_MOTION_DOT = -.1555198E-1
MEAN_MOTION_DDOT = 0

CCSDS_OMM_VERS = 2.0
CREATION_DATE  = 
ORIGINATOR     = 

OBJECT_NAME    = STARLINK-36430
OBJECT_ID      = 2026-002X
CENTER_NAME    = EARTH
REF_FRAME      = TEME
TIME_SYSTEM    = UTC
MEAN_ELEMENT_THEORY = SGP/SGP4

EPOCH          = 2026-01-17T14:00:03.000384
MEAN_MOTION    = 15.80401096
ECCENTRICITY   = .00018428
INCLINATION    = 42.9971
RA_OF_ASC_NODE = 259.8136
ARG_OF_PERICENTER = 267.1643
MEAN_ANOMALY   = 145.1796

EPHEMERIS_TYPE = 0
CLASSIFICATION_TYPE = U
NORAD_CAT_ID   = 67326
ELEMENT_SET_NO = 999
REV_AT_EPOCH   = 336
BSTAR          = -.93088289E-2
MEAN_MOTION_DOT = -.1590489E-1
MEAN_MOTION_DDOT = 0

CCSDS_OMM_VERS = 2.0
CREATION_DATE  = 
ORIGINATOR     = 

OBJECT_NAME    = STARLINK-36501
OBJECT_ID      = 2026-002Y
CENTER_NAME    = EARTH
REF_FRAME      = TEME
TIME_SYSTEM    = UTC
MEAN_ELEMENT_THEORY = SGP/SGP4

EPOCH          = 2026-01-17T14:00:03.000384
MEAN_MOTION    = 15.80483298
ECCENTRICITY   = .00016582
INCLINATION    = 42.9975
RA_OF_ASC_NODE = 259.8204
ARG_OF_PERICENTER = 264.6973
MEAN_ANOMALY   = 145.1062

EPHEMERIS_TYPE = 0
CLASSIFICATION_TYPE = U
NORAD_CAT_ID   = 67327
ELEMENT_SET_NO = 999
REV_AT_EPOCH   = 320
BSTAR          = -.91771639E-2
MEAN_MOTION_DOT = -.157596E-1
MEAN_MOTION_DDOT = 0

CCSDS_OMM_VERS = 2.0
CREATION_DATE  = 
ORIGINATOR     = 

OBJECT_NAME    = STARLINK-36489
OBJECT_ID      = 2026-002Z
CENTER_NAME    = EARTH
REF_FRAME      = TEME
TIME_SYSTEM    = UTC
MEAN_ELEMENT_THEORY = SGP/SGP4

EPOCH          = 2026-01-17T14:00:03.000384
MEAN_MOTION    = 15.80299567
ECCENTRICITY   = .00017389
INCLINATION    = 42.9969
RA_OF_ASC_NODE = 259.8068
ARG_OF_PERICENTER = 269.5003
MEAN_ANOMALY   = 145.4900

EPHEMERIS_TYPE = 0
CLASSIFICATION_TYPE = U
NORAD_CAT_ID   = 67328
ELEMENT_SET_NO = 999
REV_AT_EPOCH   = 336
BSTAR          = -.94312058E-2
MEAN_MOTION_DOT = -.1601981E-1
MEAN_MOTION_DDOT = 0

CCSDS_OMM_VERS = 2.0
CREATION_DATE  = 
ORIGINATOR     = 

OBJECT_NAME    = STARLINK-36496
OBJECT_ID      = 2026-002AA
CENTER_NAME    = EARTH
REF_FRAME      = TEME
TIME_SYSTEM    = UTC
MEAN_ELEMENT_THEORY = SGP/SGP4

EPOCH          = 2026-01-17T14:00:03.000384
MEAN_MOTION    = 15.80176570
ECCENTRICITY   = .00017123
INCLINATION    = 42.9969
RA_OF_ASC_NODE = 259.7946
ARG_OF_PERICENTER = 262.1821
MEAN_ANOMALY   = 157.5540

EPHEMERIS_TYPE = 0
CLASSIFICATION_TYPE = U
NORAD_CAT_ID   = 67329
ELEMENT_SET_NO = 999
REV_AT_EPOCH   = 318
BSTAR          = -.96330891E-2
MEAN_MOTION_DOT = -.1623617E-1
MEAN_MOTION_DDOT = 0

CCSDS_OMM_VERS = 2.0
CREATION_DATE  = 
ORIGINATOR     = 

OBJECT_NAME    = STARLINK-36483
OBJECT_ID      = 2026-002AB
CENTER_NAME    = EARTH
REF_FRAME      = TEME
TIME_SYSTEM    = UTC
MEAN_ELEMENT_THEORY = SGP/SGP4

EPOCH          = 2026-01-17T14:00:03.000384
MEAN_MOTION    = 15.79977258
ECCENTRICITY   = .00016185
INCLINATION    = 42.9970
RA_OF_ASC_NODE = 259.7810
ARG_OF_PERICENTER = 269.7939
MEAN_ANOMALY   = 155.1883

EPHEMERIS_TYPE = 0
CLASSIFICATION_TYPE = U
NORAD_CAT_ID   = 67330
ELEMENT_SET_NO = 999
REV_AT_EPOCH   = 336
BSTAR          = -.10131974E-1
MEAN_MOTION_DOT = -.1717509E-1
MEAN_MOTION_DDOT = 0

CCSDS_OMM_VERS = 2.0
CREATION_DATE  = 
ORIGINATOR     = 

OBJECT_NAME    = STARLINK-36494
OBJECT_ID      = 2026-002AC
CENTER_NAME    = EARTH
REF_FRAME      = TEME
TIME_SYSTEM    = UTC
MEAN_ELEMENT_THEORY = SGP/SGP4

EPOCH          = 2026-01-17T14:00:03.000384
MEAN_MOTION    = 15.80223578
ECCENTRICITY   = .00018009
INCLINATION    = 42.9968
RA_OF_ASC_NODE = 259.8004
ARG_OF_PERICENTER = 265.4732
MEAN_ANOMALY   = 151.9684

EPHEMERIS_TYPE = 0
CLASSIFICATION_TYPE = U
NORAD_CAT_ID   = 67331
ELEMENT_SET_NO = 999
REV_AT_EPOCH   = 336
BSTAR          = -.95212628E-2
MEAN_MOTION_DOT = -.1610367E-1
MEAN_MOTION_DDOT = 0

CCSDS_OMM_VERS = 2.0
CREATION_DATE  = 
ORIGINATOR     = 

OBJECT_NAME    = STARLINK-36492
OBJECT_ID      = 2026-002AD
CENTER_NAME    = EARTH
REF_FRAME      = TEME
TIME_SYSTEM    = UTC
MEAN_ELEMENT_THEORY = SGP/SGP4

EPOCH          = 2026-01-17T14:00:03.000384
MEAN_MOTION    = 15.79989222
ECCENTRICITY   = .00017462
INCLINATION    = 42.9972
RA_OF_ASC_NODE = 259.7863
ARG_OF_PERICENTER = 267.0773
MEAN_ANOMALY   = 155.8059

EPHEMERIS_TYPE = 0
CLASSIFICATION_TYPE = U
NORAD_CAT_ID   = 67332
ELEMENT_SET_NO = 999
REV_AT_EPOCH   = 336
BSTAR          = -.99629873E-2
MEAN_MOTION_DOT = -.169307E-1
MEAN_MOTION_DDOT = 0

CCSDS_OMM_VERS = 2.0
CREATION_DATE  = 
ORIGINATOR     = 

OBJECT_NAME    = STARLINK-36427
OBJECT_ID      = 2026-002AE
CENTER_NAME    = EARTH
REF_FRAME      = TEME
TIME_SYSTEM    = UTC
MEAN_ELEMENT_THEORY = SGP/SGP4

EPOCH          = 2026-01-17T14:00:03.000384
MEAN_MOTION    = 15.88192108
ECCENTRICITY   = .00017186
INCLINATION    = 42.9954
RA_OF_ASC_NODE = 259.3121
ARG_OF_PERICENTER = 259.5530
MEAN_ANOMALY   = 350.5726

EPHEMERIS_TYPE = 0
CLASSIFICATION_TYPE = U
NORAD_CAT_ID   = 67333
ELEMENT_SET_NO = 999
REV_AT_EPOCH   = 326
BSTAR          = -.67668729E-2
MEAN_MOTION_DOT = -.1674816E-1
MEAN_MOTION_DDOT = 0

CCSDS_OMM_VERS = 2.0
CREATION_DATE  = 
ORIGINATOR     = 

OBJECT_NAME    = STARLINK-35343
OBJECT_ID      = 2026-003A
CENTER_NAME    = EARTH
REF_FRAME      = TEME
TIME_SYSTEM    = UTC
MEAN_ELEMENT_THEORY = SGP/SGP4

EPOCH          = 2026-01-17T14:00:03.000384
MEAN_MOTION    = 15.92892762
ECCENTRICITY   = .00013922
INCLINATION    = 42.9977
RA_OF_ASC_NODE = 163.5444
ARG_OF_PERICENTER = 276.8555
MEAN_ANOMALY   = 250.8538

EPHEMERIS_TYPE = 0
CLASSIFICATION_TYPE = U
NORAD_CAT_ID   = 67334
ELEMENT_SET_NO = 999
REV_AT_EPOCH   = 239
BSTAR          = -.41744201E-2
MEAN_MOTION_DOT = -.1499752E-1
MEAN_MOTION_DDOT = .6398903E-3

